[{"OBJECT_NAME":"NESS","OBJECT_ID":"2023-155E","EPOCH":"2026-03-09T18:20:54.923712","MEAN_MOTION":15.26794015,"ECCENTRICITY":0.00068914,"INCLINATION":97.5941,"RA_OF_ASC_NODE":152.6141,"ARG_OF_PERICENTER":179.8776,"MEAN_ANOMALY":180.2465,"EPHEMERIS_TYPE":0,"CLASSIFICATION_TYPE":"U","NORAD_CAT_ID":58020,"ELEMENT_SET_NO":999,"REV_AT_EPOCH":13330,"BSTAR":0.00074047066,"MEAN_MOTION_DOT":0.00019469,"MEAN_MOTION_DDOT":0},{"OBJECT_NAME":"STARLINK-31472","OBJECT_ID":"2024-090A","EPOCH":"2026-03-09T07:39:02.982528","MEAN_MOTION":15.27562133,"ECCENTRICITY":0.00014297,"INCLINATION":43.005,"RA_OF_ASC_NODE":185.5732,"ARG_OF_PERICENTER":180.435,"MEAN_ANOMALY":179.65,"EPHEMERIS_TYPE":0,"CLASSIFICATION_TYPE":"U","NORAD_CAT_ID":59730,"ELEMENT_SET_NO":999,"REV_AT_EPOCH":10338,"BSTAR":1.4292855e-5,"MEAN_MOTION_DOT":1.31e-6,"MEAN_MOTION_DDOT":0}]
